[{"OBJECT_NAME":"QIANFAN-45","OBJECT_ID":"2024-232K","EPOCH":"2026-03-09T21:15:38.536416","MEAN_MOTION":13.51007368,"ECCENTRICITY":0.00128201,"INCLINATION":89.0071,"RA_OF_ASC_NODE":32.4286,"ARG_OF_PERICENTER":307.8822,"MEAN_ANOMALY":52.1169,"EPHEMERIS_TYPE":0,"CLASSIFICATION_TYPE":"U","NORAD_CAT_ID":62246,"ELEMENT_SET_NO":999,"REV_AT_EPOCH":11102,"BSTAR":0.00029429533,"MEAN_MOTION_DOT":2.02e-6,"MEAN_MOTION_DDOT":0},{"OBJECT_NAME":"DELTA 1 DEB","OBJECT_ID":"1975-052KT","EPOCH":"2026-03-09T15:25:16.155840","MEAN_MOTION":13.31049951,"ECCENTRICITY":0.0082965,"INCLINATION":100.1242,"RA_OF_ASC_NODE":357.6704,"ARG_OF_PERICENTER":123.6633,"MEAN_ANOMALY":356.2314,"EPHEMERIS_TYPE":0,"CLASSIFICATION_TYPE":"U","NORAD_CAT_ID":26839,"ELEMENT_SET_NO":999,"REV_AT_EPOCH":65321,"BSTAR":0.00054637,"MEAN_MOTION_DOT":2.21e-6,"MEAN_MOTION_DDOT":0}]
